FIREFLY-1               
1 62701U 25009CW  26199.79990300  .00000303  00000+0  34657-4 0  9990
2 62701  97.7059 277.2734 0002877 207.3469 152.7600 14.92745096 82033
FIREFLY-2               
1 62704U 25009CZ  26199.84485220  .00000490  00000+0  52801-4 0  9997
2 62704  97.7016 277.0851 0006071 350.5139   9.5964 14.92740009 82044
FIREFLY-3               
1 62710U 25009DF  26199.82281433  .00000701  00000+0  73180-4 0  9990
2 62710  97.7050 277.3255 0004601  65.1527 295.0171 14.92804306 82051
