{"fetched_at":"2026-07-19T07:05:08.134Z","source":"https://celestrak.org/NORAD/elements/gp.php?NAME=FIREFLY&FORMAT=JSON","constellation":"pixxel","records":[{"OBJECT_NAME":"FIREFLY-1","OBJECT_ID":"2025-009CW","EPOCH":"2026-07-18T19:11:51.619200","CLASSIFICATION_TYPE":"U","MEAN_MOTION":14.92745096,"ECCENTRICITY":0.0002877,"INCLINATION":97.7059,"RA_OF_ASC_NODE":277.2734,"ARG_OF_PERICENTER":207.3469,"MEAN_ANOMALY":152.76,"EPHEMERIS_TYPE":0,"NORAD_CAT_ID":62701,"ELEMENT_SET_NO":999,"REV_AT_EPOCH":8203,"BSTAR":0.000034657,"MEAN_MOTION_DOT":0.00000303,"MEAN_MOTION_DDOT":0},{"OBJECT_NAME":"FIREFLY-2","OBJECT_ID":"2025-009CZ","EPOCH":"2026-07-18T20:16:35.230080","CLASSIFICATION_TYPE":"U","MEAN_MOTION":14.92740009,"ECCENTRICITY":0.0006071,"INCLINATION":97.7016,"RA_OF_ASC_NODE":277.0851,"ARG_OF_PERICENTER":350.5139,"MEAN_ANOMALY":9.5964,"EPHEMERIS_TYPE":0,"NORAD_CAT_ID":62704,"ELEMENT_SET_NO":999,"REV_AT_EPOCH":8204,"BSTAR":0.000052801,"MEAN_MOTION_DOT":0.0000049,"MEAN_MOTION_DDOT":0},{"OBJECT_NAME":"FIREFLY-3","OBJECT_ID":"2025-009DF","EPOCH":"2026-07-18T19:44:51.158112","CLASSIFICATION_TYPE":"U","MEAN_MOTION":14.92804306,"ECCENTRICITY":0.0004601,"INCLINATION":97.705,"RA_OF_ASC_NODE":277.3255,"ARG_OF_PERICENTER":65.1527,"MEAN_ANOMALY":295.0171,"EPHEMERIS_TYPE":0,"NORAD_CAT_ID":62710,"ELEMENT_SET_NO":999,"REV_AT_EPOCH":8205,"BSTAR":0.00007318,"MEAN_MOTION_DOT":0.00000701,"MEAN_MOTION_DDOT":0}]}
